OBJECT_NAME,OBJECT_ID,EPOCH,MEAN_MOTION,ECCENTRICITY,INCLINATION,RA_OF_ASC_NODE,ARG_OF_PERICENTER,MEAN_ANOMALY,EPHEMERIS_TYPE,CLASSIFICATION_TYPE,NORAD_CAT_ID,ELEMENT_SET_NO,REV_AT_EPOCH,BSTAR,MEAN_MOTION_DOT,MEAN_MOTION_DDOT
ONEWEB-0336,2021-083S,2026-07-01T06:36:29.933280,13.13470667,.00019721,87.8966,317.4228,90.0920,270.0435,0,U,49202,999,23276,-.93844599E-4,-.22E-6,0
ONEWEB-0337,2021-083T,2026-07-01T10:30:18.687456,13.13469933,.00020562,87.8967,317.3962,96.2723,263.8640,0,U,49203,999,23278,.49373262E-3,.193E-5,0
ONEWEB-0338,2021-083U,2026-07-01T04:58:57.318240,13.20770667,.00018548,87.9189,271.6536,108.7892,251.3442,0,U,49204,999,23866,.10391676E-3,.55E-6,0
ONEWEB-0339,2021-083V,2026-07-01T10:42:41.254848,13.13468555,.00019256,87.8968,317.3871,108.5110,251.6228,0,U,49205,999,23276,.1397995E-3,.64E-6,0
ONEWEB-0340,2021-083W,2026-07-01T04:05:46.757184,13.18686193,.00019425,87.9185,332.6737,93.2426,266.8928,0,U,49206,999,23181,-.13293576E-3,-.39E-6,0
ONEWEB-0341,2021-083X,2026-07-01T11:32:32.216352,13.18686839,.00023604,87.9177,332.6145,96.1044,264.0358,0,U,49207,999,23187,-.53390487E-4,-.8E-7,0
ONEWEB-0342,2021-083Y,2026-07-01T06:57:46.784448,13.20771949,.00020333,87.9195,271.6268,102.8775,257.2586,0,U,49208,999,23864,.22266136E-3,.104E-5,0
ONEWEB-0343,2021-083Z,2026-07-01T11:44:40.910496,13.18686936,.00019302,87.9179,332.6117,107.8704,252.2639,0,U,49209,999,23192,-.92408867E-4,-.24E-6,0
ONEWEB-0344,2021-083AA,2026-07-01T10:35:22.523424,13.13464244,.00024576,87.8962,317.4013,100.8826,259.2580,0,U,49210,999,23276,.35434505E-2,.1307E-4,0
ONEWEB-0345,2021-083AB,2026-07-01T10:23:11.411808,13.13469559,.0002208,87.8977,317.3867,98.8579,261.2800,0,U,49211,999,23277,.68961841E-3,.265E-5,0
ONEWEB-0346,2021-083AC,2026-07-01T04:22:46.589952,13.18685923,.00019535,87.9173,332.6724,76.3211,283.8139,0,U,49212,999,23182,-.16073007E-3,-.5E-6,0
ONEWEB-0348,2021-083AD,2026-07-01T06:43:14.221344,13.20771776,.00023715,87.9197,271.6329,89.1574,270.9831,0,U,49213,999,23867,.37862793E-3,.167E-5,0
ONEWEB-0350,2021-083AE,2026-07-01T10:49:59.666592,13.13469156,.00009232,87.8977,317.3878,324.8584,35.2484,0,U,49214,999,23280,.12600502E-2,.473E-5,0
ONEWEB-0351,2021-083AF,2026-07-01T06:33:18.422496,13.20770355,.00024381,87.9197,271.6331,113.4130,246.7260,0,U,49215,999,23863,-.82089767E-4,-.2E-6,0
ONEWEB-0352,2021-083AG,2026-07-01T02:49:46.386336,13.13470055,.00019853,87.8968,317.4594,111.1917,248.9424,0,U,49216,999,23285,-.2350959E-3,-.73E-6,0
ONEWEB-0354,2021-083AH,2026-06-30T07:34:06.099168,13.20762587,.00019217,87.9223,271.8231,98.5491,261.5860,0,U,49217,999,23854,-.89807772E-2,-.3637E-4,0
ONEWEB-0355,2021-083AJ,2026-07-01T10:50:12.699168,13.13464777,.00012149,87.8967,317.3932,36.3201,323.8010,0,U,49218,999,23277,.36849728E-2,.1359E-4,0
ONEWEB-0357,2021-083AK,2026-07-01T07:07:27.040800,13.20773400,.000213,87.9195,271.6212,105.3213,254.8155,0,U,49219,999,23867,.28010342E-4,.24E-6,0
ONEWEB-0332,2021-090A,2026-07-01T07:12:36.842688,13.14502672,.00018192,87.8974,286.8964,105.0934,255.0397,0,U,49279,999,22943,-.5393259E-4,-.7E-7,0
ONEWEB-0347,2021-090B,2026-07-01T06:52:55.810848,13.20772223,.00018384,87.9196,271.6311,104.9247,255.2090,0,U,49280,999,23290,.2477483E-3,.114E-5,0
ONEWEB-0349,2021-090C,2026-07-01T05:49:52.901760,13.20773613,.00020682,87.9195,271.6404,99.6679,260.4688,0,U,49281,999,23168,.21890826E-3,.102E-5,0
ONEWEB-0353,2021-090D,2026-07-01T07:01:11.642304,13.14502651,.00017381,87.8974,286.8939,104.9441,255.1881,0,U,49282,999,22943,.15840439E-3,.72E-6,0
ONEWEB-0356,2021-090E,2026-07-01T05:47:26.554848,13.20770544,.00015599,87.9194,271.6342,78.1814,281.9494,0,U,49283,999,23168,.10331477E-3,.55E-6,0
ONEWEB-0358,2021-090F,2026-07-01T06:39:25.200000,13.20777577,.00020254,87.9198,271.6342,94.4087,265.7278,0,U,49284,999,23241,.10655265E-3,.56E-6,0
ONEWEB-0359,2021-090G,2026-07-01T06:26:13.293024,13.20774650,.00022083,87.9196,271.6289,94.5869,265.5517,0,U,49285,999,23239,.25815789E-3,.118E-5,0
ONEWEB-0360,2021-090H,2026-07-01T06:11:42.834624,13.20770461,.00021429,87.9193,271.6372,101.3886,258.7488,0,U,49286,999,23170,.27873111E-3,.126E-5,0
ONEWEB-0361,2021-090J,2026-07-01T05:45:02.656512,13.20772018,.0002078,87.9193,271.6391,96.8157,263.3213,0,U,49287,999,23215,.47710117E-4,.32E-6,0
ONEWEB-0362,2021-090K,2026-07-01T06:41:59.191584,13.19725258,.00021469,87.9181,302.1710,105.5284,254.6086,0,U,49288,999,22877,.2260037E-3,.103E-5,0
ONEWEB-0363,2021-090L,2026-07-01T06:06:52.013088,13.20771592,.00018942,87.9195,271.6359,90.7796,269.3554,0,U,49289,999,23216,-.5044436E-5,.11E-6,0
ONEWEB-0364,2021-090M,2026-07-01T07:02:36.989088,13.20772299,.00020674,87.9193,271.6363,100.0926,260.0440,0,U,49290,999,23330,.11822165E-3,.61E-6,0
