ONEWEB-0336             
1 49202U 21083S   26182.27534645 -.00000022  00000+0 -93845-4 0  9994
2 49202  87.8966 317.4228 0001972  90.0920 270.0435 13.13470667232768
ONEWEB-0337             
1 49203U 21083T   26182.43771629  .00000193  00000+0  49373-3 0  9991
2 49203  87.8967 317.3962 0002056  96.2723 263.8640 13.13469933232781
ONEWEB-0338             
1 49204U 21083U   26182.20760785  .00000055  00000+0  10392-3 0  9994
2 49204  87.9189 271.6536 0001854 108.7892 251.3442 13.20770667238661
ONEWEB-0339             
1 49205U 21083V   26182.44631082  .00000064  00000+0  13980-3 0  9994
2 49205  87.8968 317.3871 0001925 108.5110 251.6228 13.13468555232768
ONEWEB-0340             
1 49206U 21083W   26182.17068006 -.00000039  00000+0 -13294-3 0  9997
2 49206  87.9185 332.6737 0001942  93.2426 266.8928 13.18686193231816
ONEWEB-0341             
1 49207U 21083X   26182.48092843 -.00000008  00000+0 -53390-4 0  9996
2 49207  87.9177 332.6145 0002360  96.1044 264.0358 13.18686839231874
ONEWEB-0342             
1 49208U 21083Y   26182.29012482  .00000104  00000+0  22266-3 0  9999
2 49208  87.9195 271.6268 0002033 102.8775 257.2586 13.20771949238645
ONEWEB-0343             
1 49209U 21083Z   26182.48936239 -.00000024  00000+0 -92409-4 0  9996
2 49209  87.9179 332.6117 0001930 107.8704 252.2639 13.18686936231927
ONEWEB-0344             
1 49210U 21083AA  26182.44123291  .00001307  00000+0  35435-2 0  9997
2 49210  87.8962 317.4013 0002457 100.8826 259.2580 13.13464244232763
ONEWEB-0345             
1 49211U 21083AB  26182.43277097  .00000265  00000+0  68962-3 0  9995
2 49211  87.8977 317.3867 0002208  98.8579 261.2800 13.13469559232774
ONEWEB-0346             
1 49212U 21083AC  26182.18248368 -.00000050  00000+0 -16073-3 0  9997
2 49212  87.9173 332.6724 0001953  76.3211 283.8139 13.18685923231826
ONEWEB-0348             
1 49213U 21083AD  26182.28002571  .00000167  00000+0  37863-3 0  9990
2 49213  87.9197 271.6329 0002371  89.1574 270.9831 13.20771776238676
ONEWEB-0350             
1 49214U 21083AE  26182.45138503  .00000473  00000+0  12601-2 0  9997
2 49214  87.8977 317.3878 0000923 324.8584  35.2484 13.13469156232803
ONEWEB-0351             
1 49215U 21083AF  26182.27312989 -.00000020  00000+0 -82090-4 0  9991
2 49215  87.9197 271.6331 0002438 113.4130 246.7260 13.20770355238639
ONEWEB-0352             
1 49216U 21083AG  26182.11789799 -.00000073  00000+0 -23510-3 0  9991
2 49216  87.8968 317.4594 0001985 111.1917 248.9424 13.13470055232859
ONEWEB-0354             
1 49217U 21083AH  26181.31534837 -.00003637  00000+0 -89808-2 0  9994
2 49217  87.9223 271.8231 0001921  98.5491 261.5860 13.20762587238540
ONEWEB-0355             
1 49218U 21083AJ  26182.45153587  .00001359  00000+0  36850-2 0  9996
2 49218  87.8967 317.3932 0001214  36.3201 323.8010 13.13464777232773
ONEWEB-0357             
1 49219U 21083AK  26182.29684075  .00000024  00000+0  28010-4 0  9999
2 49219  87.9195 271.6212 0002130 105.3213 254.8155 13.20773400238671
ONEWEB-0332             
1 49279U 21090A   26182.30042642 -.00000007  00000+0 -53933-4 0  9998
2 49279  87.8974 286.8964 0001819 105.0934 255.0397 13.14502672229432
ONEWEB-0347             
1 49280U 21090B   26182.28675707  .00000114  00000+0  24775-3 0  9999
2 49280  87.9196 271.6311 0001838 104.9247 255.2090 13.20772223232901
ONEWEB-0349             
1 49281U 21090C   26182.24297340  .00000102  00000+0  21891-3 0  9992
2 49281  87.9195 271.6404 0002068  99.6679 260.4688 13.20773613231688
ONEWEB-0353             
1 49282U 21090D   26182.29249586  .00000072  00000+0  15840-3 0  9990
2 49282  87.8974 286.8939 0001738 104.9441 255.1881 13.14502651229435
ONEWEB-0356             
1 49283U 21090E   26182.24127957  .00000055  00000+0  10331-3 0  9994
2 49283  87.9194 271.6342 0001559  78.1814 281.9494 13.20770544231680
ONEWEB-0358             
1 49284U 21090F   26182.27737500  .00000056  00000+0  10655-3 0  9999
2 49284  87.9198 271.6342 0002025  94.4087 265.7278 13.20777577232412
ONEWEB-0359             
1 49285U 21090G   26182.26820941  .00000118  00000+0  25816-3 0  9995
2 49285  87.9196 271.6289 0002208  94.5869 265.5517 13.20774650232393
ONEWEB-0360             
1 49286U 21090H   26182.25813466  .00000126  00000+0  27873-3 0  9993
2 49286  87.9193 271.6372 0002142 101.3886 258.7488 13.20770461231708
ONEWEB-0361             
1 49287U 21090J   26182.23961408  .00000032  00000+0  47710-4 0  9991
2 49287  87.9193 271.6391 0002078  96.8157 263.3213 13.20772018232155
ONEWEB-0362             
1 49288U 21090K   26182.27915731  .00000103  00000+0  22600-3 0  9993
2 49288  87.9181 302.1710 0002146 105.5284 254.6086 13.19725258228779
ONEWEB-0363             
1 49289U 21090L   26182.25476867  .00000011  00000+0 -50444-5 0  9992
2 49289  87.9195 271.6359 0001894  90.7796 269.3554 13.20771592232161
ONEWEB-0364             
1 49290U 21090M   26182.29348367  .00000061  00000+0  11822-3 0  9990
2 49290  87.9193 271.6363 0002067 100.0926 260.0440 13.20772299233303
